{"type": "FeatureCollection", "features": [ {"type": "Feature", "properties": {"norad_id": 66583, "name": "STARLINK-35941", "group": "last-30-days", "lat": -19.17001380438335, "lon": 19.444458240703057, "alt_km": 346.1718599104506, "timestamp": "2025-12-03T04:52:28.421540+00:00", "meta": {"OBJECT_NAME": "STARLINK-35941", "OBJECT_ID": "2025-268AC", "EPOCH": "2025-12-02T20:00:03.000384", "MEAN_MOTION": 15.74980803, "ECCENTRICITY": 0.0001756, "INCLINATION": 42.9982, "RA_OF_ASC_NODE": 179.7809, "ARG_OF_PERICENTER": 285.7544, "MEAN_ANOMALY": 343.984, "EPHEMERIS_TYPE": 0, "CLASSIFICATION_TYPE": "U", "NORAD_CAT_ID": 66583, "ELEMENT_SET_NO": 999, "REV_AT_EPOCH": 307, "BSTAR": 0.00052622, "MEAN_MOTION_DOT": 0.00080927, "MEAN_MOTION_DDOT": 0}, "tle": {"line1": "1 66583U 25268AC  25336.83336806  .00080927  00000+0  52622-3 0  9992", "line2": "2 66583  42.9982 179.7809 0001756 285.7544 343.9840 15.74980803  3075"}}, "geometry": {"type": "Point", "coordinates": [19.444458240703057, -19.17001380438335]}}, {"type": "Feature", "properties": {"norad_id": 66584, "name": "STARLINK-35939", "group": "last-30-days", "lat": -20.383717418027246, "lon": 21.034406478510746, "alt_km": 346.2156102557874, "timestamp": "2025-12-03T04:52:28.421550+00:00", "meta": {"OBJECT_NAME": "STARLINK-35939", "OBJECT_ID": "2025-268AD", "EPOCH": "2025-12-02T20:00:03.000384", "MEAN_MOTION": 15.75018215, "ECCENTRICITY": 0.000164, "INCLINATION": 42.9983, "RA_OF_ASC_NODE": 179.7763, "ARG_OF_PERICENTER": 281.889, "MEAN_ANOMALY": 349.7609, "EPHEMERIS_TYPE": 0, "CLASSIFICATION_TYPE": "U", "NORAD_CAT_ID": 66584, "ELEMENT_SET_NO": 999, "REV_AT_EPOCH": 307, "BSTAR": 0.00010535, "MEAN_MOTION_DOT": 0.00015721, "MEAN_MOTION_DDOT": 0}, "tle": {"line1": "1 66584U 25268AD  25336.83336806  .00015721  00000+0  10535-3 0  9990", "line2": "2 66584  42.9983 179.7763 0001640 281.8890 349.7609 15.75018215  3076"}}, "geometry": {"type": "Point", "coordinates": [21.034406478510746, -20.383717418027246]}}, {"type": "Feature", "properties": {"norad_id": 66585, "name": "STARLINK-35963", "group": "last-30-days", "lat": -21.565030417163754, "lon": 22.625631076736003, "alt_km": 345.60598377412043, "timestamp": "2025-12-03T04:52:28.421581+00:00", "meta": {"OBJECT_NAME": "STARLINK-35963", "OBJECT_ID": "2025-268AE", "EPOCH": "2025-12-02T20:00:03.000384", "MEAN_MOTION": 15.7497402, "ECCENTRICITY": 0.0002188, "INCLINATION": 42.9982, "RA_OF_ASC_NODE": 179.7718, "ARG_OF_PERICENTER": 259.6573, "MEAN_ANOMALY": 13.9101, "EPHEMERIS_TYPE": 0, "CLASSIFICATION_TYPE": "U", "NORAD_CAT_ID": 66585, "ELEMENT_SET_NO": 999, "REV_AT_EPOCH": 307, "BSTAR": 0.00070425, "MEAN_MOTION_DOT": 0.00108802, "MEAN_MOTION_DDOT": 0}, "tle": {"line1": "1 66585U 25268AE  25336.83336806  .00108802  00000+0  70425-3 0  9998", "line2": "2 66585  42.9982 179.7718 0002188 259.6573  13.9101 15.74974020  3076"}}, "geometry": {"type": "Point", "coordinates": [22.625631076736003, -21.565030417163754]}}, {"type": "Feature", "properties": {"norad_id": 66586, "name": "TJS-21", "group": "last-30-days", "lat": 38.627514715950625, "lon": -147.49532199589805, "alt_km": 39222.70305803663, "timestamp": "2025-12-03T04:52:28.421598+00:00", "meta": {"OBJECT_NAME": "TJS-21", "OBJECT_ID": "2025-269A", "EPOCH": "2025-11-22T00:38:56.616288", "MEAN_MOTION": 2.0099221, "ECCENTRICITY": 0.75179873, "INCLINATION": 51.0366, "RA_OF_ASC_NODE": 174.7096, "ARG_OF_PERICENTER": 225.0489, "MEAN_ANOMALY": 41.6572, "EPHEMERIS_TYPE": 0, "CLASSIFICATION_TYPE": "U", "NORAD_CAT_ID": 66586, "ELEMENT_SET_NO": 999, "REV_AT_EPOCH": 2, "BSTAR": 0.00053569978, "MEAN_MOTION_DOT": 3.197e-05, "MEAN_MOTION_DDOT": 0}, "tle": {"line1": "1 66586U 25269A   25326.02704417  .00003197  00000+0  53570-3 0  9990", "line2": "2 66586  51.0366 174.7096 7517987 225.0489  41.6572  2.00992210    24"}}, "geometry": {"type": "Point", "coordinates": [-147.49532199589805, 38.627514715950625]}}, {"type": "Feature", "properties": {"norad_id": 66587, "name": "CZ-3B R/B", "group": "last-30-days", "lat": 41.961811546239645, "lon": -142.12018220807894, "alt_km": 37138.186532618056, "timestamp": "2025-12-03T04:52:28.421616+00:00", "meta": {"OBJECT_NAME": "CZ-3B R/B", "OBJECT_ID": "2025-269B", "EPOCH": "2025-11-23T12:20:01.405824", "MEAN_MOTION": 2.01516013, "ECCENTRICITY": 0.75253415, "INCLINATION": 51.3768, "RA_OF_ASC_NODE": 174.0599, "ARG_OF_PERICENTER": 225.2938, "MEAN_ANOMALY": 41.2116, "EPHEMERIS_TYPE": 0, "CLASSIFICATION_TYPE": "U", "NORAD_CAT_ID": 66587, "ELEMENT_SET_NO": 999, "REV_AT_EPOCH": 6, "BSTAR": 0.00049596604, "MEAN_MOTION_DOT": 0.0001032, "MEAN_MOTION_DDOT": -9.13844e-07}, "tle": {"line1": "1 66587U 25269B   25327.51390516  .00010320 -91384-6  49597-3 0  9990", "line2": "2 66587  51.3768 174.0599 7525341 225.2938  41.2116  2.01516013    67"}}, "geometry": {"type": "Point", "coordinates": [-142.12018220807894, 41.961811546239645]}}, {"type": "Feature", "properties": {"norad_id": 66588, "name": "STARLINK-36076", "group": "last-30-days", "lat": -31.519673001648293, "lon": -151.62092790608796, "alt_km": 337.5590782993586, "timestamp": "2025-12-03T04:52:28.421632+00:00", "meta": {"OBJECT_NAME": "STARLINK-36076", "OBJECT_ID": "2025-270A", "EPOCH": "2025-12-02T20:00:03.000384", "MEAN_MOTION": 15.7945066, "ECCENTRICITY": 0.0001882, "INCLINATION": 42.9987, "RA_OF_ASC_NODE": 251.7955, "ARG_OF_PERICENTER": 262.4624, "MEAN_ANOMALY": 103.4584, "EPHEMERIS_TYPE": 0, "CLASSIFICATION_TYPE": "U", "NORAD_CAT_ID": 66588, "ELEMENT_SET_NO": 999, "REV_AT_EPOCH": 280, "BSTAR": -0.0097261, "MEAN_MOTION_DOT": -0.01590178, "MEAN_MOTION_DDOT": 0}, "tle": {"line1": "1 66588U 25270A   25336.83336806 -.01590178  00000+0 -97261-2 0  9994", "line2": "2 66588  42.9987 251.7955 0001882 262.4624 103.4584 15.79450660  2801"}}, "geometry": {"type": "Point", "coordinates": [-151.62092790608796, -31.519673001648293]}}, {"type": "Feature", "properties": {"norad_id": 66589, "name": "STARLINK-35447", "group": "last-30-days", "lat": -29.524386975683896, "lon": -147.9004686806207, "alt_km": 337.67719131954163, "timestamp": "2025-12-03T04:52:28.421642+00:00", "meta": {"OBJECT_NAME": "STARLINK-35447", "OBJECT_ID": "2025-270B", "EPOCH": "2025-12-02T20:00:03.000384", "MEAN_MOTION": 15.79492497, "ECCENTRICITY": 0.0001705, "INCLINATION": 42.9987, "RA_OF_ASC_NODE": 251.7859, "ARG_OF_PERICENTER": 255.5339, "MEAN_ANOMALY": 114.1296, "EPHEMERIS_TYPE": 0, "CLASSIFICATION_TYPE": "U", "NORAD_CAT_ID": 66589, "ELEMENT_SET_NO": 999, "REV_AT_EPOCH": 291, "BSTAR": -0.0098619, "MEAN_MOTION_DOT": -0.01612039, "MEAN_MOTION_DDOT": 0}, "tle": {"line1": "1 66589U 25270B   25336.83336806 -.01612039  00000+0 -98619-2 0  9994", "line2": "2 66589  42.9987 251.7859 0001705 255.5339 114.1296 15.79492497  2910"}}, "geometry": {"type": "Point", "coordinates": [-147.9004686806207, -29.524386975683896]}}, {"type": "Feature", "properties": {"norad_id": 66590, "name": "STARLINK-35429", "group": "last-30-days", "lat": -30.569163534891988, "lon": -149.8042738219932, "alt_km": 337.55849016492994, "timestamp": "2025-12-03T04:52:28.421652+00:00", "meta": {"OBJECT_NAME": "STARLINK-35429", "OBJECT_ID": "2025-270C", "EPOCH": "2025-12-02T20:00:03.000384", "MEAN_MOTION": 15.79489631, "ECCENTRICITY": 0.0001762, "INCLINATION": 42.9989, "RA_OF_ASC_NODE": 251.791, "ARG_OF_PERICENTER": 260.429, "MEAN_ANOMALY": 107.277, "EPHEMERIS_TYPE": 0, "CLASSIFICATION_TYPE": "U", "NORAD_CAT_ID": 66590, "ELEMENT_SET_NO": 999, "REV_AT_EPOCH": 291, "BSTAR": -0.0098012, "MEAN_MOTION_DOT": -0.01603266, "MEAN_MOTION_DDOT": 0}, "tle": {"line1": "1 66590U 25270C   25336.83336806 -.01603266  00000+0 -98012-2 0  9995", "line2": "2 66590  42.9989 251.7910 0001762 260.4290 107.2770 15.79489631  2912"}}, "geometry": {"type": "Point", "coordinates": [-149.8042738219932, -30.569163534891988]}}, {"type": "Feature", "properties": {"norad_id": 66591, "name": "STARLINK-36058", "group": "last-30-days", "lat": -28.371842280298928, "lon": -145.89781189853045, "alt_km": 337.53087118283383, "timestamp": "2025-12-03T04:52:28.421664+00:00", "meta": {"OBJECT_NAME": "STARLINK-36058", "OBJECT_ID": "2025-270D", "EPOCH": "2025-12-02T20:00:03.000384", "MEAN_MOTION": 15.79451613, "ECCENTRICITY": 0.0001534, "INCLINATION": 42.9987, "RA_OF_ASC_NODE": 251.7806, "ARG_OF_PERICENTER": 271.267, "MEAN_ANOMALY": 100.5619, "EPHEMERIS_TYPE": 0, "CLASSIFICATION_TYPE": "U", "NORAD_CAT_ID": 66591, "ELEMENT_SET_NO": 999, "REV_AT_EPOCH": 280, "BSTAR": -0.0099038, "MEAN_MOTION_DOT": -0.01615186, "MEAN_MOTION_DDOT": 0}, "tle": {"line1": "1 66591U 25270D   25336.83336806 -.01615186  00000+0 -99038-2 0  9999", "line2": "2 66591  42.9987 251.7806 0001534 271.2670 100.5619 15.79451613  2809"}}, "geometry": {"type": "Point", "coordinates": [-145.89781189853045, -28.371842280298928]}}, {"type": "Feature", "properties": {"norad_id": 66592, "name": "STARLINK-36066", "group": "last-30-days", "lat": -27.263468517340854, "lon": -144.05728630407228, "alt_km": 337.61041466228016, "timestamp": "2025-12-03T04:52:28.421675+00:00", "meta": {"OBJECT_NAME": "STARLINK-36066", "OBJECT_ID": "2025-270E", "EPOCH": "2025-12-02T20:00:03.000384", "MEAN_MOTION": 15.79448539, "ECCENTRICITY": 0.0001743, "INCLINATION": 42.9988, "RA_OF_ASC_NODE": 251.7756, "ARG_OF_PERICENTER": 261.8043, "MEAN_ANOMALY": 112.0048, "EPHEMERIS_TYPE": 0, "CLASSIFICATION_TYPE": "U", "NORAD_CAT_ID": 66592, "ELEMENT_SET_NO": 999, "REV_AT_EPOCH": 271, "BSTAR": -0.0099746, "MEAN_MOTION_DOT": -0.01625171, "MEAN_MOTION_DDOT": 0}, "tle": {"line1": "1 66592U 25270E   25336.83336806 -.01625171  00000+0 -99746-2 0  9991", "line2": "2 66592  42.9988 251.7756 0001743 261.8043 112.0048 15.79448539  2713"}}, "geometry": {"type": "Point", "coordinates": [-144.05728630407228, -27.263468517340854]}}]}